WORLDVIEW-1 (WV-1)      
1 32060U 07041A   26193.76092997  .00003661  00000+0  15166-3 0  9990
2 32060  97.3900 313.1448 0001300 218.1950 141.9196 15.24542474 46778
WORLDVIEW-2 (WV-2)      
1 35946U 09055A   26193.84099131  .00000032  00000+0  25061-4 0  9994
2 35946  98.4757 266.9413 0005213 135.5583 224.6023 14.37906539879337
WORLDVIEW-3 (WV-3)      
1 40115U 14048A   26193.83891573  .00000435  00000+0  57140-4 0  9995
2 40115  97.8558 268.3169 0001118 159.5544 200.5716 14.85062139645717
